SL-3 R/B                
1 19046U 88032B   17284.89494895 -.00000390  00000-0 -24538-4 0  9999
2 19046  97.5142 328.3626 0036917 298.4815  61.2694 15.02292545589873
SL-16 R/B               
1 19120U 88039B   17285.37873335  .00000215  00000-0  12545-3 0  9991
2 19120  71.0139  77.3012 0021860   2.5636 357.5597 14.19176926523013
COSMOS 1953             
1 19210U 88050A   17285.08698657  .00000480  00000-0  31436-4 0  9999
2 19210  82.5148 280.0346 0012610 216.3283 143.7089 15.05386343595426
SL-8 R/B                
1 19257U 88053B   17284.66367720  .00000058  00000-0  28251-4 0  9992
2 19257  74.0511   2.4102 0021243 226.9555 244.0291 14.37375990535507
COSMOS 1975             
1 19573U 88093A   17284.94979809  .00000898  00000-0  62421-4 0  9994
2 19573  82.5213 232.4976 0012865 260.7405  99.2367 15.04289538556228
SL-14 R/B               
1 19574U 88093B   17285.38144483  .00000136  00000-0  13612-4 0  9999
2 19574  82.5346  35.4939 0023204  90.4314 304.7891 14.83237533566829
SL-16 R/B               
1 19650U 88102B   17284.94207610 -.00000098  00000-0 -25769-4 0  9993
2 19650  70.9969 129.5950 0014318 356.0224   4.0782 14.15764698492246
INTERCOSMOS 24          
1 20261U 89080A   17285.36530786  .00000390  00000-0  11182-3 0  9995
2 20261  82.5903 294.0186 1203902 186.4705 171.9548 12.55916710280673
SL-14 R/B               
1 20262U 89080C   17284.66670903  .00000060  00000-0  14510-4 0  9997
2 20262  82.5957 341.5051 1237205 351.0913   6.9896 12.48873995276257
DELTA 1 R/B             
1 20323U 89089B   17285.16363356  .00000106  00000-0  36510-4 0  9996
2 20323  97.1163 212.6049 0073357  72.9293 287.9923 14.48219451471652
DELTA 2 R/B(1)          
1 20453U 90008B   17285.17332445  .00002107  00000-0  12313-3 0  9996
2 20453  35.6242 262.8108 0287223  61.4088 301.5210 14.83616707465589
COSMOS 2058             
1 20465U 90010A   17284.68181589  .00000432  00000-0  34667-4 0  9994
2 20465  82.4880 135.8598 0014047 262.1242  97.8386 14.97590678502771
SL-14 R/B               
1 20466U 90010B   17285.10108205  .00000118  00000-0  12115-4 0  9992
2 20466  82.5011 263.2041 0019462 317.9818  41.9902 14.81297799494801
SL-14 R/B               
1 20511U 90018B   17285.36072723  .00000138  00000-0  15146-4 0  9993
2 20511  82.5258 204.9882 0019063  88.8921  46.9110 14.79956246489396
HST                     
1 20580U 90037B   17284.50534257  .00000844  00000-0  41047-4 0  9993
2 20580  28.4702 318.8605 0002658 350.1525 125.3719 15.08882781307863
SL-16 R/B               
1 20625U 90046B   17285.16476763 -.00000223  00000-0 -91020-4 0  9992
2 20625  70.9982 263.6242 0016843 287.0678  72.8600 14.14623456414375
COSMOS 2084             
1 20663U 90055A   17284.94270205  .00000358  00000-0  47384-4 0  9993
2 20663  62.7925 198.4131 0138624 101.4641 260.2058 14.91681832477215
SL-6 R/B(2)             
1 20666U 90055D   17284.91042875  .00000294  00000-0  43051-4 0  9999
2 20666  62.7829 117.0190 0123405 120.8542 240.4761 14.92012073479128
SL-8 R/B                
1 20775U 90078B   17284.59643618  .00004046  00000-0  20217-3 0  9998
2 20775  82.9274 312.7456 0585619 343.6711  14.6279 14.31266972365422
SL-8 R/B                
1 21088U 91006B   17284.89764414  .00000142  00000-0  12804-3 0  9995
2 21088  82.9389 293.4720 0022379 357.4035  71.5155 13.77071171341396
OKEAN-3                 
1 21397U 91039A   17285.38178419  .00000484  00000-0  44528-4 0  9991
2 21397  82.5248  27.0834 0017431 200.8235 159.2277 14.92557745427266
COSMOS 2151             
1 21422U 91042A   17284.63755696  .00000291  00000-0  26322-4 0  9997
2 21422  82.4990 135.6438 0012735 265.7322  94.2442 14.91874000425864
SL-14 R/B               
1 21423U 91042B   17285.38685662  .00000105  00000-0  10856-4 0  9995
2 21423  82.4964 211.8879 0016469 223.0664 136.9262 14.79708532419911
ERS-1                   
1 21574U 91050A   17284.84595682  .00000096  00000-0  46290-4 0  9993
2 21574  98.4709 230.2112 0032496 328.6721  31.2529 14.37613479374362
ARIANE 40 R/B           
1 21610U 91050F   17285.18479340  .00000030  00000-0  23307-4 0  9996
2 21610  98.5919 342.3811 0002386 331.0995  57.3329 14.40812242376962
INTERCOSMOS 25          
1 21819U 91086A   17284.64890333  .00001115  00000-0  21819-3 0  9995
2 21819  82.5745 353.0348 1522251 199.0472 154.7148 12.04656958126308
SL-14 R/B               
1 21820U 91086B   17284.88757677  .00000157  00000-0  25820-4 0  9998
2 21820  82.5629  49.6409 1577449  31.2004 337.3689 11.93337745120708
SL-8 R/B                
1 21876U 92008B   17284.86928181  .00000039  00000-0  24540-4 0  9999
2 21876  82.9301  30.4845 0036006  69.5694  50.1564 13.75608131287190
SL-8 R/B                
1 21938U 92020B   17284.90206178 -.00000075  00000-0 -93286-4 0  9997
2 21938  82.9263 273.8030 0028155 224.5982 197.7728 13.75253557279036
SL-16 R/B               
1 22220U 92076B   17285.15172166 -.00000251  00000-0 -10198-3 0  9996
2 22220  71.0004 173.0451 0010494  95.4133  57.5061 14.16421598287334
SL-16 R/B               
1 22285U 92093B   17284.52319771  .00000251  00000-0  15401-3 0  9991
2 22285  71.0220 328.2390 0006069 296.3357  63.7142 14.15013262278999
COSMOS 2228             
1 22286U 92094A   17285.41579566  .00000321  00000-0  32224-4 0  9993
2 22286  82.5182 263.5581 0022929  92.3043 268.0800 14.87853017339927
SL-16 R/B               
1 22566U 93016B   17285.13625248 -.00000271  00000-0 -11549-3 0  9999
2 22566  71.0076 181.4413 0012167 307.5557  52.4460 14.14949314267810
COSMOS 2242             
1 22626U 93024A   17285.16746417  .00000313  00000-0  31476-4 0  9997
2 22626  82.5190 291.5310 0020680  92.5849 267.7736 14.87715053323545
SL-16 R/B               
1 22803U 93059B   17284.65131778 -.00000234  00000-0 -92594-4 0  9995
2 22803  70.9926   4.0207 0018515 215.0664 144.9242 14.16781184244778
ARIANE 40 R/B           
1 22830U 93061H   17285.14517268 -.00000042  00000-0  18421-5 0  9999
2 22830  98.8803 303.2011 0010028 310.2228  49.8076 14.31412171254978
COSMOS 2278             
1 23087U 94023A   17284.87818860 -.00000243  00000-0 -10363-3 0  9993
2 23087  71.0502 115.0913 0007701  23.1382 337.0086 14.13748120210743
SL-16 R/B               
1 23088U 94023B   17285.36819357 -.00000155  00000-0 -55788-4 0  9994
2 23088  71.0011  36.1086 0005603 276.7480  83.3005 14.14656152212116
SL-16 R/B               
1 23343U 94074B   17285.15558424 -.00000006  00000-0  66871-5 0  9996
2 23343  98.1413 323.3302 0008073  63.5622 343.2524 14.76712234234099
SL-16 R/B               
1 23405U 94077B   17284.55015540 -.00000246  00000-0 -10219-3 0  9998
2 23405  70.9835 330.7470 0002393 203.8279 156.2733 14.15198134181970
ERS-2                   
1 23560U 95021A   17284.94963985  .00002333  00000-0  10890-3 0  9990
2 23560  98.5598 293.0526 0002251 269.4395  90.6579 15.21088878193105
ARIANE 40+ R/B          
1 23561U 95021B   17284.90072278  .00000039  00000-0  28355-4 0  9990
2 23561  98.7970 288.8076 0005863 275.2546 144.4103 14.37835913177805
SL-16 R/B               
1 23705U 95058B   17285.15579804  .00000202  00000-0  12862-3 0  9992
2 23705  71.0204 143.6297 0010783 125.5537 234.6593 14.15100285133738
SL-16 R/B               
1 24298U 96051B   17284.92987213 -.00000122  00000-0 -39833-4 0  9996
2 24298  70.8485 176.0869 0014830 358.8012   1.3070 14.12488151 88045
ORBVIEW 2 (SEASTAR)     
1 24883U 97037A   17285.38845656  .00000088  00000-0  47740-4 0  9991
2 24883  98.5494  32.5332 0003439 112.6312 247.5236 14.33414718 68693
SL-16 R/B               
1 25400U 98043G   17284.87845500  .00000017  00000-0  25119-4 0  9994
2 25400  98.5003 229.4343 0009119 320.1938  39.8572 14.25419978  1691
SL-16 R/B               
1 25407U 98045B   17284.94267827 -.00000183  00000-0 -68953-4 0  9990
2 25407  71.0114 156.0758 0007108  11.1781 348.9498 14.15769770992430
ISS (ZARYA)             
1 25544U 98067A   17285.52590244  .00004083  00000-0  68831-4 0  9999
2 25544  51.6421 173.3803 0004563  15.9037  48.4830 15.54154671 80003
SL-8 R/B                
1 25723U 99022C   17285.37553649  .00012749  00000-0  18582-3 0  9996
2 25723  48.4155 261.8640 0009723 241.6825 118.3140 15.55927304 24739
CZ-4B R/B               
1 25732U 99025C   17285.42617944 -.00000002  00000-0  21363-4 0  9996
2 25732  98.9959 288.6185 0038307 117.0720  14.4262 14.17638082953249
OKEAN-O                 
1 25860U 99039A   17284.90805575  .00000109  00000-0  23244-4 0  9991
2 25860  98.1977 271.4495 0001804  98.0694 262.0720 14.76503960980956
SL-16 R/B               
1 25861U 99039B   17285.41101902  .00000079  00000-0  18206-4 0  9990
2 25861  98.1200 257.6034 0016963  66.3223  84.8246 14.78436484983098
TERRA                   
1 25994U 99068A   17288.44535476  .00000168  00000-0  37297-4 0  9992
2 25994  98.1989   1.7124 0000757  72.1783 288.0110 14.57123886948182
ENVISAT                 
1 27386U 02009A   17285.36077477  .00000001  00000-0  13897-4 0  9994
2 27386  98.2189 325.6708 0001204  85.3310 274.8017 14.37905291817919
IDEFIX & ARIANE 42P R/B 
1 27422U 02021B   17285.42091314 -.00000026  00000-0  58698-5 0  9999
2 27422  98.2369 279.2550 0011112 247.3785 112.6223 14.29257276803427
AQUA                    
1 27424U 02022A   17288.46445486  .00000229  00000-0  50842-4 0  9998
2 27424  98.2101 227.9996 0001816  80.9101 279.2816 14.57114340821793
CZ-4B R/B               
1 27432U 02024C   17285.13195584  .00000003  00000-0  24993-4 0  9999
2 27432  99.0024 259.4473 0051437  62.0826 348.0819 14.14051519795322
MIDORI II (ADEOS-II)    
1 27597U 02056A   17284.98304801  .00000099  00000-0  57573-4 0  9997
2 27597  98.3842 249.6657 0001465  41.0966 319.0325 14.27309751772083
H-2A R/B                
1 27601U 02056E   17284.83755265  .00000035  00000-0  28420-4 0  9990
2 27601  98.3645 348.5334 0071187 310.1345 162.1407 14.31801760774509
